{
  "type": "FeatureCollection",
  "features": [
    {
      "type": "Feature",
      "properties": {
        "norad_id": 55973,
        "name": "TIANMU-1 03",
        "group": "weather",
        "lat": -73.13235507261474,
        "lon": -57.807715917274884,
        "alt_km": 453.91198149977663,
        "timestamp": "2025-12-11T08:58:26.757250+00:00",
        "meta_object_name": "TIANMU-1 03",
        "meta_object_id": "2023-039A",
        "meta_epoch": "2025-12-11T04:45:15.846048",
        "meta_mean_motion": 15.40849188,
        "meta_eccentricity": 0.0004473,
        "meta_inclination": 97.511,
        "meta_ra_of_asc_node": 147.8067,
        "meta_arg_of_pericenter": 65.6884,
        "meta_mean_anomaly": 294.4829,
        "meta_ephemeris_type": 0,
        "meta_classification_type": "U",
        "meta_norad_cat_id": 55973,
        "meta_element_set_no": 999,
        "meta_rev_at_epoch": 15182,
        "meta_bstar": 0.00056653,
        "meta_mean_motion_dot": 0.00023205,
        "meta_mean_motion_ddot": 0,
        "tle_line1": "1 55973U 23039A   25345.19810007  .00023205  00000+0  56653-3 0  9990",
        "tle_line2": "2 55973  97.5110 147.8067 0004473  65.6884 294.4829 15.40849188151825"
      },
      "geometry": {
        "type": "Point",
        "coordinates": [
          -57.807715917274884,
          -73.13235507261474
        ]
      }
    },
    {
      "type": "Feature",
      "properties": {
        "norad_id": 55974,
        "name": "TIANMU-1 04",
        "group": "weather",
        "lat": 6.914575661318924,
        "lon": 146.26309126982534,
        "alt_km": 442.64599472796635,
        "timestamp": "2025-12-11T08:58:26.757264+00:00",
        "meta_object_name": "TIANMU-1 04",
        "meta_object_id": "2023-039B",
        "meta_epoch": "2025-12-11T04:16:09.067008",
        "meta_mean_motion": 15.41184057,
        "meta_eccentricity": 0.0005151,
        "meta_inclination": 97.5042,
        "meta_ra_of_asc_node": 146.9777,
        "meta_arg_of_pericenter": 60.9726,
        "meta_mean_anomaly": 299.2035,
        "meta_ephemeris_type": 0,
        "meta_classification_type": "U",
        "meta_norad_cat_id": 55974,
        "meta_element_set_no": 999,
        "meta_rev_at_epoch": 15182,
        "meta_bstar": 0.00058226,
        "meta_mean_motion_dot": 0.00024123,
        "meta_mean_motion_ddot": 0,
        "tle_line1": "1 55974U 23039B   25345.17788272  .00024123  00000+0  58226-3 0  9995",
        "tle_line2": "2 55974  97.5042 146.9777 0005151  60.9726 299.2035 15.41184057151825"
      },
      "geometry": {
        "type": "Point",
        "coordinates": [
          146.26309126982534,
          6.914575661318924
        ]
      }
    },
    {
      "type": "Feature",
      "properties": {
        "norad_id": 55975,
        "name": "TIANMU-1 05",
        "group": "weather",
        "lat": 40.35684033860836,
        "lon": 141.2356860356281,
        "alt_km": 438.36790414980806,
        "timestamp": "2025-12-11T08:58:26.757275+00:00",
        "meta_object_name": "TIANMU-1 05",
        "meta_object_id": "2023-039C",
        "meta_epoch": "2025-12-11T04:07:18.735168",
        "meta_mean_motion": 15.40805067,
        "meta_eccentricity": 0.0004386,
        "meta_inclination": 97.5089,
        "meta_ra_of_asc_node": 147.4637,
        "meta_arg_of_pericenter": 82.6563,
        "meta_mean_anomaly": 277.5181,
        "meta_ephemeris_type": 0,
        "meta_classification_type": "U",
        "meta_norad_cat_id": 55975,
        "meta_element_set_no": 999,
        "meta_rev_at_epoch": 15180,
        "meta_bstar": 0.00055045,
        "meta_mean_motion_dot": 0.00022509,
        "meta_mean_motion_ddot": 0,
        "tle_line1": "1 55975U 23039C   25345.17174462  .00022509  00000+0  55045-3 0  9998",
        "tle_line2": "2 55975  97.5089 147.4637 0004386  82.6563 277.5181 15.40805067151806"
      },
      "geometry": {
        "type": "Point",
        "coordinates": [
          141.2356860356281,
          40.35684033860836
        ]
      }
    },
    {
      "type": "Feature",
      "properties": {
        "norad_id": 55976,
        "name": "TIANMU-1 06",
        "group": "weather",
        "lat": -5.302876056546801,
        "lon": 148.83683033021242,
        "alt_km": 445.78795494705173,
        "timestamp": "2025-12-11T08:58:26.757286+00:00",
        "meta_object_name": "TIANMU-1 06",
        "meta_object_id": "2023-039D",
        "meta_epoch": "2025-12-11T04:19:21.533376",
        "meta_mean_motion": 15.41235784,
        "meta_eccentricity": 0.0004721,
        "meta_inclination": 97.5099,
        "meta_ra_of_asc_node": 147.936,
        "meta_arg_of_pericenter": 77.9051,
        "meta_mean_anomaly": 282.2724,
        "meta_ephemeris_type": 0,
        "meta_classification_type": "U",
        "meta_norad_cat_id": 55976,
        "meta_element_set_no": 999,
        "meta_rev_at_epoch": 15182,
        "meta_bstar": 0.00056746,
        "meta_mean_motion_dot": 0.00023545,
        "meta_mean_motion_ddot": 0,
        "tle_line1": "1 55976U 23039D   25345.18011034  .00023545  00000+0  56746-3 0  9995",
        "tle_line2": "2 55976  97.5099 147.9360 0004721  77.9051 282.2724 15.41235784151820"
      },
      "geometry": {
        "type": "Point",
        "coordinates": [
          148.83683033021242,
          -5.302876056546801
        ]
      }
    },
    {
      "type": "Feature",
      "properties": {
        "norad_id": 56232,
        "name": "FENGYUN 3G",
        "group": "weather",
        "lat": 1.893104725865405,
        "lon": -123.90708260769229,
        "alt_km": 411.5727071184092,
        "timestamp": "2025-12-11T08:58:26.757296+00:00",
        "meta_object_name": "FENGYUN 3G",
        "meta_object_id": "2023-055A",
        "meta_epoch": "2025-12-11T04:19:56.451936",
        "meta_mean_motion": 15.53495979,
        "meta_eccentricity": 0.0009292,
        "meta_inclination": 49.9932,
        "meta_ra_of_asc_node": 235.5005,
        "meta_arg_of_pericenter": 141.2509,
        "meta_mean_anomaly": 218.9126,
        "meta_ephemeris_type": 0,
        "meta_classification_type": "U",
        "meta_norad_cat_id": 56232,
        "meta_element_set_no": 999,
        "meta_rev_at_epoch": 15078,
        "meta_bstar": 0.00075653,
        "meta_mean_motion_dot": 0.0004892,
        "meta_mean_motion_ddot": 0,
        "tle_line1": "1 56232U 23055A   25345.18051449  .00048920  00000+0  75653-3 0  9995",
        "tle_line2": "2 56232  49.9932 235.5005 0009292 141.2509 218.9126 15.53495979150787"
      },
      "geometry": {
        "type": "Point",
        "coordinates": [
          -123.90708260769229,
          1.893104725865405
        ]
      }
    },
    {
      "type": "Feature",
      "properties": {
        "norad_id": 57166,
        "name": "METEOR-M2 3",
        "group": "weather",
        "lat": 81.33691126198562,
        "lon": -47.173771085492994,
        "alt_km": 803.6480533677541,
        "timestamp": "2025-12-11T08:58:26.757307+00:00",
        "meta_object_name": "METEOR-M2 3",
        "meta_object_id": "2023-091A",
        "meta_epoch": "2025-12-11T05:11:00.343680",
        "meta_mean_motion": 14.24025817,
        "meta_eccentricity": 0.0003995,
        "meta_inclination": 98.638,
        "meta_ra_of_asc_node": 38.7819,
        "meta_arg_of_pericenter": 13.1194,
        "meta_mean_anomaly": 347.0088,
        "meta_ephemeris_type": 0,
        "meta_classification_type": "U",
        "meta_norad_cat_id": 57166,
        "meta_element_set_no": 999,
        "meta_rev_at_epoch": 12776,
        "meta_bstar": 3.1932e-05,
        "meta_mean_motion_dot": 3e-07,
        "meta_mean_motion_ddot": 0,
        "tle_line1": "1 57166U 23091A   25345.21597620  .00000030  00000+0  31932-4 0  9995",
        "tle_line2": "2 57166  98.6380  38.7819 0003995  13.1194 347.0088 14.24025817127769"
      },
      "geometry": {
        "type": "Point",
        "coordinates": [
          -47.173771085492994,
          81.33691126198562
        ]
      }
    },
    {
      "type": "Feature",
      "properties": {
        "norad_id": 57399,
        "name": "TIANMU-1 07",
        "group": "weather",
        "lat": 53.496660534003794,
        "lon": -134.78836651190468,
        "alt_km": 473.78817232877464,
        "timestamp": "2025-12-11T08:58:26.757318+00:00",
        "meta_object_name": "TIANMU-1 07",
        "meta_object_id": "2023-101A",
        "meta_epoch": "2025-12-11T03:42:39.313152",
        "meta_mean_motion": 15.28033268,
        "meta_eccentricity": 0.0005614,
        "meta_inclination": 97.2878,
        "meta_ra_of_asc_node": 35.039,
        "meta_arg_of_pericenter": 85.6007,
        "meta_mean_anomaly": 274.5874,
        "meta_ephemeris_type": 0,
        "meta_classification_type": "U",
        "meta_norad_cat_id": 57399,
        "meta_element_set_no": 999,
        "meta_rev_at_epoch": 13291,
        "meta_bstar": 0.00042906,
        "meta_mean_motion_dot": 0.00011671,
        "meta_mean_motion_ddot": 0,
        "tle_line1": "1 57399U 23101A   25345.15462168  .00011671  00000+0  42906-3 0  9991",
        "tle_line2": "2 57399  97.2878  35.0390 0005614  85.6007 274.5874 15.28033268132919"
      },
      "geometry": {
        "type": "Point",
        "coordinates": [
          -134.78836651190468,
          53.496660534003794
        ]
      }
    }
  ]
}